STARLINK-32676          
1 62426U 24249T   26068.39993789  .00022292  00000+0  81742-3 0  9991
2 62426  43.0006 316.1997 0000374  22.4031 337.6837 15.27568767 67764
JINJUSAT-1B             
1 63210U 25052A   26068.66363707  .00019955  00000+0  68430-3 0  9998
2 63210  97.4113 325.4613 0005550  82.1930 277.9941 15.30194857 54866
